[{"OBJECT_NAME":"TRANSPORTER-12 OBJECT AZ","OBJECT_ID":"2025-009AZ","EPOCH":"2026-03-09T17:02:46.667040","MEAN_MOTION":15.30349724,"ECCENTRICITY":9.87e-5,"INCLINATION":97.3981,"RA_OF_ASC_NODE":151.9913,"ARG_OF_PERICENTER":45.3581,"MEAN_ANOMALY":314.774,"EPHEMERIS_TYPE":0,"CLASSIFICATION_TYPE":"U","NORAD_CAT_ID":62656,"ELEMENT_SET_NO":999,"REV_AT_EPOCH":6379,"BSTAR":0.00054902545,"MEAN_MOTION_DOT":0.00016057,"MEAN_MOTION_DDOT":0},{"OBJECT_NAME":"STARLINK-35547","OBJECT_ID":"2025-237F","EPOCH":"2026-03-09T05:51:20.794752","MEAN_MOTION":15.30197249,"ECCENTRICITY":0.00012505,"INCLINATION":53.162,"RA_OF_ASC_NODE":41.6006,"ARG_OF_PERICENTER":92.6754,"MEAN_ANOMALY":267.439,"EPHEMERIS_TYPE":0,"CLASSIFICATION_TYPE":"U","NORAD_CAT_ID":66119,"ELEMENT_SET_NO":999,"REV_AT_EPOCH":2254,"BSTAR":0.00054465027,"MEAN_MOTION_DOT":0.00015805,"MEAN_MOTION_DDOT":0}]
